STARLINK-34368          
1 64311U 25123W   25230.08575766  .00038072  00000+0  86811-3 0  9990
2 64311  70.0041 354.4966 0003070 270.1349  89.9481 15.42725311 10788
STARLINK-34384          
1 64312U 25123X   25229.76803746  .00014932  00000+0  34333-3 0  9997
2 64312  70.0030 355.3978 0003541 270.4813  89.5963 15.42743980 10909
STARLINK-34358          
1 64313U 25123Y   25230.08809933  .00035737  00000+0  81537-3 0  9993
2 64313  70.0051 354.5082 0003011 269.2699  90.8138 15.42723896 10767
STARLINK-34354          
1 64314U 25123Z   25230.08413357  .00026614  00000+0  60849-3 0  9992
2 64314  70.0034 354.4940 0003327 270.0060  90.0741 15.42738327 10771
STARLINK-34387          
1 64315U 25123AA  25230.07999343  .00040406  00000+0  92073-3 0  9995
2 64315  70.0052 354.4783 0003505 273.1851  86.8930 15.42727772 10840
STARLINK-33590          
1 64316U 25123AB  25230.07603115  .00034169  00000+0  77977-3 0  9990
2 64316  70.0058 354.4631 0003443 266.0650  94.0138 15.42727642 10744
STARLINK-11736 [DTC]    
1 64317U 25124A   25230.17615083  .00149485  00000+0  11434-2 0  9993
2 64317  42.9963 176.2352 0002053 282.8029  77.2609 15.70927364 11932
STARLINK-11673 [DTC]    
1 64318U 25124B   25230.15492419  .00159044  00000+0  12184-2 0  9993
2 64318  42.9998 176.0633 0002072 278.9668  81.0965 15.70858675 11988
STARLINK-11671 [DTC]    
1 64319U 25124C   25230.20788699  .00171081  00000+0  13072-2 0  9990
2 64319  43.0013 175.5951 0002519 277.5383  82.5198 15.70880659 11937
STARLINK-11594 [DTC]    
1 64320U 25124D   25229.92713719  .00215363  00000+0  16294-2 0  9991
2 64320  42.9983 177.8084 0002237 248.1576 111.9054 15.70975763 11782
STARLINK-11596 [DTC]    
1 64321U 25124E   25229.91652040  .00172786  00000+0  13215-2 0  9991
2 64321  42.9980 177.7222 0003610 293.4739  66.5749 15.70848942 11798
STARLINK-11747 [DTC]    
1 64322U 25124F   25229.90589866  .00285850  00000+0  21479-2 0  9994
2 64322  42.9975 177.6378 0001563 244.5828 115.4877 15.70923608 11941
STARLINK-11728 [DTC]    
1 64323U 25124G   25230.19195675  .00199295  00000+0  15158-2 0  9993
2 64323  43.0006 175.4631 0002810 258.2932 101.7620 15.70899420 11769
STARLINK-11696 [DTC]    
1 64324U 25124H   25230.20257743  .00061912  00000+0  48210-3 0  9991
2 64324  42.9958 175.5504 0001344 270.5288  89.5425 15.70854804 11938
STARLINK-11698 [DTC]    
1 64325U 25124J   25230.20879561  .00191484  00000+0  14562-2 0  9990
2 64325  43.0009 175.6005 0003123 270.9030  89.1480 15.70926476 11933
STARLINK-11678 [DTC]    
1 64326U 25124K   25230.16670139 -.00023775  00000+0 -18235-3 0  9997
2 64326  42.9980 176.1424 0001450 266.8077  99.8246 15.70835838 11756
STARLINK-11674 [DTC]    
1 64327U 25124L   25230.19727101  .00111816  00000+0  86224-3 0  9998
2 64327  42.9973 175.5057 0001637 258.8614 101.2069 15.70867047 11937
STARLINK-11707 [DTC]    
1 64328U 25124M   25230.21319460  .00232118  00000+0  17575-2 0  9998
2 64328  43.0004 175.6344 0002714 274.9337  85.1221 15.70905034 11932
STARLINK-11734 [DTC]    
1 64329U 25124N   25230.18664410  .00164195  00000+0  12504-2 0  9999
2 64329  42.9979 175.4187 0004028 251.0300 109.0131 15.70977769 11852
STARLINK-34252          
1 64330U 25124P   25230.25004630  .00028984  00000+0  10590-2 0  9999
2 64330  42.9989 190.8093 0001330 269.2378 138.6293 15.27568303 11771
STARLINK-34050          
1 64331U 25124Q   25230.16925406  .00016582  00000+0  59522-3 0  9993
2 64331  42.9987 191.1729 0000784 251.2873 108.7894 15.28427008 11719
STARLINK-33782          
1 64332U 25124R   25229.91670139  .00024931  00000+0  91240-3 0  9995
2 64332  43.0009 192.3960 0001920 263.9950 228.8293 15.27580218  5943
STARLINK-34207          
1 64333U 25124S   25230.17212040  .00027289  00000+0  99681-3 0  9995
2 64333  42.9990 191.1938 0001060 263.4098  96.6633 15.27603524 11667
STARLINK-34260          
1 64334U 25124T   25230.17982789  .00018758  00000+0  68900-3 0  9991
2 64334  42.9978 191.2489 0000619 247.5264 112.5522 15.27601498 11767
STARLINK-33855          
1 64335U 25124U   25230.21565683  .00013906  00000+0  51367-3 0  9996
2 64335  43.0012 190.6525 0001719 254.0100 106.0562 15.27594710 11677
STARLINK-34223          
1 64336U 25124V   25230.21237902  .00045695  00000+0  10936-2 0  9993
2 64336  43.0016 189.7644 0001545 270.0541  90.0138 15.40727618 11791
STARLINK-34216          
1 64337U 25124W   25229.91670139  .00027210  00000+0  99464-3 0  9999
2 64337  42.9992 192.1579 0001066 250.2971 341.5788 15.27580492 11734
STARLINK-34218          
1 64338U 25124X   25230.17219361  .00024837  00000+0  59965-3 0  9990
2 64338  43.0008 190.3282 0002421 272.6086  87.4493 15.40710926 11895
STARLINK-34017          
1 64339U 25124Y   25230.16183959  .00015656  00000+0  57701-3 0  9998
2 64339  42.9996 191.1081 0001627 251.7225 108.3449 15.27592263 11886
QPS-SAR-11 (YAMATSUMI-I)
1 64340U 25125A   25229.91010443  .00004094  00000+0  36020-3 0  9994
2 64340  42.0096  59.1822 0008174 335.7540  24.2900 14.97524071 10080
