OBJECT_NAME,OBJECT_ID,EPOCH,MEAN_MOTION,ECCENTRICITY,INCLINATION,RA_OF_ASC_NODE,ARG_OF_PERICENTER,MEAN_ANOMALY,EPHEMERIS_TYPE,CLASSIFICATION_TYPE,NORAD_CAT_ID,ELEMENT_SET_NO,REV_AT_EPOCH,BSTAR,MEAN_MOTION_DOT,MEAN_MOTION_DDOT
STARLINK-34368,2025-123W,2025-08-18T02:03:29.461824,15.42725311,0.000307,70.0041,354.4966,270.1349,89.9481,0,U,64311,999,1078,0.00086811,0.00038072,0.0
STARLINK-34384,2025-123X,2025-08-17T18:25:58.436544,15.4274398,0.0003541,70.003,355.3978,270.4813,89.5963,0,U,64312,999,1090,0.00034333,0.00014932,0.0
STARLINK-34358,2025-123Y,2025-08-18T02:06:51.782112,15.42723896,0.0003011,70.0051,354.5082,269.2699,90.8138,0,U,64313,999,1076,0.00081537,0.00035737,0.0
STARLINK-34354,2025-123Z,2025-08-18T02:01:09.140448,15.42738327,0.0003327,70.0034,354.494,270.006,90.0741,0,U,64314,999,1077,0.00060849,0.00026614,0.0
STARLINK-34387,2025-123AA,2025-08-18T01:55:11.432352,15.42727772,0.0003505,70.0052,354.4783,273.1851,86.893,0,U,64315,999,1084,0.00092073,0.00040406,0.0
STARLINK-33590,2025-123AB,2025-08-18T01:49:29.091360,15.42727642,0.0003443,70.0058,354.4631,266.065,94.0138,0,U,64316,999,1074,0.00077977,0.00034169,0.0
STARLINK-11736 [DTC],2025-124A,2025-08-18T04:13:39.431712,15.70927364,0.0002053,42.9963,176.2352,282.8029,77.2609,0,U,64317,999,1193,0.0011434,0.00149485,0.0
STARLINK-11673 [DTC],2025-124B,2025-08-18T03:43:05.450016,15.70858675,0.0002072,42.9998,176.0633,278.9668,81.0965,0,U,64318,999,1198,0.0012184,0.00159044,0.0
STARLINK-11671 [DTC],2025-124C,2025-08-18T04:59:21.435936,15.70880659,0.0002519,43.0013,175.5951,277.5383,82.5198,0,U,64319,999,1193,0.0013072,0.00171081,0.0
STARLINK-11594 [DTC],2025-124D,2025-08-17T22:15:04.653216,15.70975763,0.0002237,42.9983,177.8084,248.1576,111.9054,0,U,64320,999,1178,0.0016294,0.00215363,0.0
STARLINK-11596 [DTC],2025-124E,2025-08-17T21:59:47.362560,15.70848942,0.000361,42.998,177.7222,293.4739,66.5749,0,U,64321,999,1179,0.0013215,0.00172786,0.0
STARLINK-11747 [DTC],2025-124F,2025-08-17T21:44:29.644224,15.70923608,0.0001563,42.9975,177.6378,244.5828,115.4877,0,U,64322,999,1194,0.0021479,0.0028585,0.0
STARLINK-11728 [DTC],2025-124G,2025-08-18T04:36:25.063200,15.7089942,0.000281,43.0006,175.4631,258.2932,101.762,0,U,64323,999,1176,0.0015158,0.00199295,0.0
STARLINK-11696 [DTC],2025-124H,2025-08-18T04:51:42.689952,15.70854804,0.0001344,42.9958,175.5504,270.5288,89.5425,0,U,64324,999,1193,0.0004821,0.00061912,0.0
STARLINK-11698 [DTC],2025-124J,2025-08-18T05:00:39.940704,15.70926476,0.0003123,43.0009,175.6005,270.903,89.148,0,U,64325,999,1193,0.0014562,0.00191484,0.0
STARLINK-11678 [DTC],2025-124K,2025-08-18T04:00:03.000096,15.70835838,0.000145,42.998,176.1424,266.8077,99.8246,0,U,64326,999,1175,-0.00018235,-0.00023775,0.0
STARLINK-11674 [DTC],2025-124L,2025-08-18T04:44:04.215264,15.70867047,0.0001637,42.9973,175.5057,258.8614,101.2069,0,U,64327,999,1193,0.00086224,0.00111816,0.0
STARLINK-11707 [DTC],2025-124M,2025-08-18T05:07:00.013440,15.70905034,0.0002714,43.0004,175.6344,274.9337,85.1221,0,U,64328,999,1193,0.0017575,0.00232118,0.0
STARLINK-11734 [DTC],2025-124N,2025-08-18T04:28:46.050240,15.70977769,0.0004028,42.9979,175.4187,251.03,109.0131,0,U,64329,999,1185,0.0012504,0.00164195,0.0
STARLINK-34252,2025-124P,2025-08-18T06:00:04.000320,15.27568303,0.000133,42.9989,190.8093,269.2378,138.6293,0,U,64330,999,1177,0.001059,0.00028984,0.0
STARLINK-34050,2025-124Q,2025-08-18T04:03:43.550784,15.28427008,7.84e-05,42.9987,191.1729,251.2873,108.7894,0,U,64331,999,1171,0.00059522,0.00016582,0.0
STARLINK-33782,2025-124R,2025-08-17T22:00:03.000096,15.27580218,0.000192,43.0009,192.396,263.995,228.8293,0,U,64332,999,594,0.0009124,0.00024931,0.0
STARLINK-34207,2025-124S,2025-08-18T04:07:51.202560,15.27603524,0.000106,42.999,191.1938,263.4098,96.6633,0,U,64333,999,1166,0.00099681,0.00027289,0.0
STARLINK-34260,2025-124T,2025-08-18T04:18:57.129696,15.27601498,6.19e-05,42.9978,191.2489,247.5264,112.5522,0,U,64334,999,1176,0.000689,0.00018758,0.0
STARLINK-33855,2025-124U,2025-08-18T05:10:32.750112,15.2759471,0.0001719,43.0012,190.6525,254.01,106.0562,0,U,64335,999,1167,0.00051367,0.00013906,0.0
STARLINK-34223,2025-124V,2025-08-18T05:05:49.547328,15.40727618,0.0001545,43.0016,189.7644,270.0541,90.0138,0,U,64336,999,1179,0.0010936,0.00045695,0.0
STARLINK-34216,2025-124W,2025-08-17T22:00:03.000096,15.27580492,0.0001066,42.9992,192.1579,250.2971,341.5788,0,U,64337,999,1173,0.00099464,0.0002721,0.0
STARLINK-34218,2025-124X,2025-08-18T04:07:57.527904,15.40710926,0.0002421,43.0008,190.3282,272.6086,87.4493,0,U,64338,999,1189,0.00059965,0.00024837,0.0
STARLINK-34017,2025-124Y,2025-08-18T03:53:02.940576,15.27592263,0.0001627,42.9996,191.1081,251.7225,108.3449,0,U,64339,999,1188,0.00057701,0.00015656,0.0
QPS-SAR-11 (YAMATSUMI-I),2025-125A,2025-08-17T21:50:33.022752,14.97524071,0.0008174,42.0096,59.1822,335.754,24.29,0,U,64340,999,1008,0.0003602,4.094e-05,0.0
